[{"OBJECT_NAME":"STARLINK-35095","OBJECT_ID":"2025-192X","EPOCH":"2026-03-09T17:18:40.492800","MEAN_MOTION":15.30192772,"ECCENTRICITY":0.00015335,"INCLINATION":53.1604,"RA_OF_ASC_NODE":232.5852,"ARG_OF_PERICENTER":53.4734,"MEAN_ANOMALY":306.6408,"EPHEMERIS_TYPE":0,"CLASSIFICATION_TYPE":"U","NORAD_CAT_ID":65425,"ELEMENT_SET_NO":999,"REV_AT_EPOCH":2938,"BSTAR":0.00064002122,"MEAN_MOTION_DOT":0.0001864,"MEAN_MOTION_DDOT":0},{"OBJECT_NAME":"SL-12 DEB","OBJECT_ID":"1987-079Q","EPOCH":"2026-03-08T22:01:57.538848","MEAN_MOTION":5.05706133,"ECCENTRICITY":0.52644473,"INCLINATION":64.9976,"RA_OF_ASC_NODE":0.685,"ARG_OF_PERICENTER":43.8732,"MEAN_ANOMALY":347.5725,"EPHEMERIS_TYPE":0,"CLASSIFICATION_TYPE":"U","NORAD_CAT_ID":25805,"ELEMENT_SET_NO":999,"REV_AT_EPOCH":4822,"BSTAR":0.012439625,"MEAN_MOTION_DOT":0.0001606,"MEAN_MOTION_DDOT":0}]
